ONEWEB-0435             
1 51632U 22012L   25214.47937595 -.00000681  00000+0 -19885-2 0  9996
2 51632  87.8797  99.8544 0002170  72.6652 287.4713 13.10372094167570
ONEWEB-0436             
1 51633U 22012M   25214.50810422  .00000179  00000+0  42711-3 0  9995
2 51633  87.9028  69.2653 0001893  77.6229 282.5115 13.17646460171718
ONEWEB-0438             
1 51634U 22012N   25214.61550518 -.00000162  00000+0 -49948-3 0  9998
2 51634  87.8796  99.8274 0001771  82.6547 277.4782 13.10369518167629
ONEWEB-0439             
1 51635U 22012P   25214.61882036 -.00000317  00000+0 -94476-3 0  9990
2 51635  87.8796  99.8150 0001894  79.2687 280.8653 13.10369967167607
ONEWEB-0442             
1 51636U 22012Q   25214.50051650 -.00000002  00000+0 -37750-4 0  9993
2 51636  87.9032  69.3201 0001431 103.4749 256.6542 13.17649352171707
ONEWEB-0443             
1 51637U 22012R   25214.51991873 -.00000162  00000+0 -44938-3 0  9997
2 51637  87.9029  69.3256 0001970  90.4590 269.6767 13.17648922171751
ONEWEB-0444             
1 51638U 22012S   25214.45615835  .00000224  00000+0  60471-3 0  9999
2 51638  87.8792  99.8488 0001976  79.2175 280.9174 13.10370052167597
ONEWEB-0445             
1 51639U 22012T   25214.24863510 -.00000613  00000+0 -17920-2 0  9996
2 51639  87.8792  99.8430 0001617  77.7853 282.3456 13.10372073167575
